[{"OBJECT_NAME":"OBJECT L","OBJECT_ID":"2023-085L","EPOCH":"2026-03-09T23:02:21.999840","MEAN_MOTION":15.29079976,"ECCENTRICITY":0.0005428,"INCLINATION":97.486,"RA_OF_ASC_NODE":178.8598,"ARG_OF_PERICENTER":50.8528,"MEAN_ANOMALY":309.3193,"EPHEMERIS_TYPE":0,"CLASSIFICATION_TYPE":"U","NORAD_CAT_ID":57014,"ELEMENT_SET_NO":999,"REV_AT_EPOCH":15144,"BSTAR":0.00063462603,"MEAN_MOTION_DOT":0.00017871,"MEAN_MOTION_DDOT":0},{"OBJECT_NAME":"STARLINK-30330","OBJECT_ID":"2023-122E","EPOCH":"2026-03-09T22:00:01.999584","MEAN_MOTION":15.26729213,"ECCENTRICITY":0.00013423,"INCLINATION":43.0002,"RA_OF_ASC_NODE":91.4961,"ARG_OF_PERICENTER":272.5302,"MEAN_ANOMALY":260.1094,"EPHEMERIS_TYPE":0,"CLASSIFICATION_TYPE":"U","NORAD_CAT_ID":57636,"ELEMENT_SET_NO":999,"REV_AT_EPOCH":572,"BSTAR":0.0011703555,"MEAN_MOTION_DOT":0.00031256,"MEAN_MOTION_DDOT":0}]
